0 AIST 2
1 39133U 13015D   13282.33010334  .00001332  00000-0  12132-3 0  4628
2 39133 064.8784 210.8993 0004203 343.3765 157.4598 14.99510948 25938
0 AIST 2
1 39133U 13015D   13283.12254861  .00001321  00000-0  12040-3 0  4638
2 39133 064.8787 208.4142 0004238 342.6398 115.7153 14.99513321 26058
0 AIST 2
1 39133U 13015D   13283.33179265  .00001314  00000-0  11980-3 0  4640
2 39133 064.8787 207.7579 0004242 342.3488 165.4804 14.99513930 26080
0 AIST 2
1 39133U 13015D   13283.63789618  .00001573  00000-0  12735-3 0  4648
2 39133 064.8769 206.7917 0004566 344.2360 015.9115 14.99515759 26135
0 AIST 2
1 39133U 13015D   13283.78895587  .00001440  00000-0  13001-3 0  4658
2 39133 064.8787 206.3231 0004492 343.1058 112.4468 14.99516722 26157
0 AIST 2
1 39133U 13015D   13284.13001302  .00001511  00000-0  13575-3 0  4668
2 39133 064.8781 205.2524 0004535 343.0258 153.5224 14.99518534 26208
0 AIST 2
1 39133U 13015D   13284.33045123  .00001541  00000-0  13819-3 0  4674
2 39133 064.8778 204.6234 0004610 343.3017 155.1936 14.99519525 26237
0 AIST 2
1 39133U 13015D   13285.26562848  .00001821  00000-0  16090-3 0  4704
2 39133 064.8787 201.6894 0004789 343.3003 163.2047 14.99525029 26372
0 AIST 2
1 39133U 13015D   13285.77815494  .00001874  00000-0  16514-3 0  4718
2 39133 064.8785 200.0823 0004801 343.0819 050.0030 14.99527452 26458
0 AIST 2
1 39133U 13015D   13286.12403002  .00001918  00000-0  16874-3 0  4725
2 39133 064.8787 198.9979 0004852 343.2724 116.8223 14.99529160 26509
0 AIST 2
1 39133U 13015D   13286.39192251  .00001941  00000-0  17055-3 0  4734
2 39133 064.8784 198.1576 0004898 343.5608 122.6012 14.99530455 26549
0 AIST 2
1 39133U 13015D   13286.77844059  .00001977  00000-0  17346-3 0  4749
2 39133 064.8784 196.9458 0004982 343.8091 048.7548 14.99532330 26600
0 AIST 2
1 39133U 13015D   13287.12496549  .00001982  00000-0  17387-3 0  4758
2 39133 064.8785 195.8594 0005010 344.0540 119.0318 14.99533797 26655
0 AIST 2
1 39133U 13015D   13287.26548256  .00001993  00000-0  17474-3 0  4766
2 39133 064.8783 195.4187 0005096 344.1468 157.4428 14.99534460 26679
0 AIST 2
1 39133U 13015D   13287.91980975  .00002003  00000-0  17560-3 0  4776
2 39133 064.8782 193.3672 0005149 344.1677 089.4510 14.99537298 26774
0 AIST 2
1 39133U 13015D   13288.20243036  .00002019  00000-0  17688-3 0  4788
2 39133 064.8780 192.4804 0005247 344.3158 174.8804 14.99538700 26813
0 AIST 2
1 39133U 13015D   13288.26591792  .00002002  00000-0  17545-3 0  4794
2 39133 064.8781 192.2815 0005290 343.9915 157.9065 14.99538793 26822
0 AIST 2
1 39133U 13015D   13288.85206264  .00001976  00000-0  17338-3 0  4807
2 39133 064.8782 190.4422 0005307 344.0927 081.7975 14.99541096 26915
0 AIST 2
1 39133U 13015D   13289.13446587  .00001935  00000-0  17001-3 0  4816
2 39133 064.8784 189.5572 0005398 343.6671 166.6270 14.99542001 26955
0 AIST 2
1 39133U 13015D   13289.46200300  .00001944  00000-0  17075-3 0  4825
2 39133 064.8784 188.5304 0005449 343.5427 134.7915 14.99543486 27009
0 AIST 2
1 39133U 13015D   13289.78581045  .00001917  00000-0  16855-3 0  4834
2 39133 064.8787 187.5148 0005567 344.3896 081.8513 14.99544676 27050
0 AIST 2
1 39133U 13015D   13290.05943481  .00001912  00000-0  16820-3 0  4840
2 39133 064.8788 186.6569 0005606 344.3441 118.9184 14.99545799 27095
0 AIST 2
1 39133U 13015D   13290.26600375  .00001913  00000-0  16822-3 0  4859
2 39133 064.8776 186.0066 0005695 344.3404 153.9830 14.99546733 27125
0 AIST 2
1 39133U 13015D   13290.78535808  .00001969  00000-0  17275-3 0  4869
2 39133 064.8782 184.3780 0005767 343.8927 077.9082 14.99549402 27209
0 AIST 2
1 39133U 13015D   13291.12082355  .00001986  00000-0  17414-3 0  4877
2 39133 064.8782 183.3260 0005801 343.6068 089.0415 14.99551049 27253
0 AIST 2
1 39133U 13015D   13291.20095587  .00002006  00000-0  17579-3 0  4884
2 39133 064.8778 183.0740 0005812 343.7305 161.4751 14.99551587 27261
0 AIST 2
1 39133U 13015D   13291.78519241  .00002057  00000-0  17990-3 0  4899
2 39133 064.8777 181.2423 0005840 343.6015 075.3254 14.99554514 27350
0 AIST 2
1 39133U 13015D   13292.13625784  .00002060  00000-0  18013-3 0  4902
2 39133 064.8778 180.1414 0005832 343.5741 170.4138 14.99556103 27405
0 AIST 2
1 39133U 13015D   13292.32841699  .00002067  00000-0  18065-3 0  4913
2 39133 064.8773 179.5384 0005888 343.5381 127.7317 14.99557013 27437
0 AIST 2
1 39133U 13015D   13292.78563640  .00002104  00000-0  18363-3 0  4924
2 39133 064.8778 178.1043 0005913 343.9997 075.3586 14.99559352 27507
0 AIST 2
1 39133U 13015D   13293.13652704  .00002157  00000-0  18791-3 0  4938
2 39133 064.8776 177.0034 0006004 344.8053 168.6788 14.99561408 27558
0 AIST 2
1 39133U 13015D   13293.20077032  .00002151  00000-0  18741-3 0  4941
2 39133 064.8777 176.8021 0006008 344.6551 155.6170 14.99561648 27565
0 AIST 2
1 39133U 13015D   13293.78737291  .00002166  00000-0  18867-3 0  4950
2 39133 064.8779 174.9626 0005987 344.1256 082.6602 14.99564472 27656
0 AIST 2
1 39133U 13015D   13294.13743559  .00002131  00000-0  18578-3 0  4966
2 39133 064.8779 173.8642 0005942 343.3524 173.0930 14.99565785 27705
0 AIST 2
1 39133U 13015D   13294.20173082  .00002125  00000-0  18534-3 0  4978
2 39133 064.8779 173.6629 0005978 343.4990 160.0151 14.99566016 27715
0 AIST 2
1 39133U 13015D   13294.78735459  .00002117  00000-0  18467-3 0  4980
2 39133 064.8786 171.8261 0006048 343.7884 080.9624 14.99568595 27808
0 AIST 2
1 39133U 13015D   13295.12338144  .00002081  00000-0  18177-3 0  4998
2 39133 064.8781 170.7714 0006098 343.5984 095.0492 14.99569751 27858
0 AIST 2
1 39133U 13015D   13295.39765172  .00002075  00000-0  18122-3 0  5008
2 39133 064.8780 169.9114 0006134 343.5923 135.5877 14.99570898 27890
0 AIST 2
1 39133U 13015D   13295.85659034  .00002041  00000-0  17852-3 0  5011
2 39133 064.8785 168.4721 0006130 343.5176 093.0504 14.99572621 27968
0 AIST 2
1 39133U 13015D   13296.20161998  .00001965  00000-0  17238-3 0  5021
2 39133 064.8775 167.3880 0006300 342.9989 156.0673 14.99573462 28013
